ISS OBJECT YC           
1 67686U 98067YC  26055.51714998  .00045468  00000+0  76511-3 0  9994
2 67686  51.6312 137.1991 0007729 108.4650 251.7180 15.51233940  2743
LEOPARD                 
1 67687U 98067YD  26055.71334622  .00033074  00000+0  56752-3 0  9994
2 67687  51.6308 136.2582 0007750 112.1821 247.9991 15.50835076  2699
ISS OBJECT YE           
1 67688U 98067YE  26055.51802700  .00042268  00000+0  71566-3 0  9995
2 67688  51.6313 137.2046 0007633 108.8035 251.3783 15.51094294  2666
PRC TEST SPACECRAFT 4   
1 67689U 26024A   26055.89919732 -.00000012  00000+0  22818-4 0  9994
2 67689  49.9851  82.8136 0006171 310.7867  49.2539 14.91677322  2678
CZ-2F R/B               
1 67690U 26024B   26055.87084650  .00017784  00000+0  33012-3 0  9996
2 67690  49.9869  78.8653 0176044 221.7763 136.9644 15.33764308  2726
CZ-2F DEB               
1 67691U 26024C   26055.92977418  .00806090  10549-4  78637-3 0  9998
2 67691  49.9042  73.7546 0203508 232.9935 125.2268 15.80904815  2786
CZ-2F DEB               
1 67692U 26024D   26055.87833340  .00189725  00000+0  36225-2 0  9999
2 67692  50.3159  81.4098 0250050 229.6551 128.2328 15.19826183  2672
STARLINK-36748          
1 67693U 26025A   26055.91668981 -.00026576  00000+0 -17765-3 0  9998
2 67693  97.2841 166.8183 0001248  85.5065   9.5232 15.75217397  3798
STARLINK-36753          
1 67694U 26025B   26055.91668981 -.00157321  00000+0 -10701-2 0  9994
2 67694  97.2838 166.8357 0001636  75.3477  63.6962 15.75258636  3953
STARLINK-36750          
1 67695U 26025C   26055.91668981 -.00005434  00000+0 -27625-4 0  9997
2 67695  97.2834 166.8357 0001485  96.7201  39.1216 15.80829600  3797
STARLINK-36401          
1 67696U 26025D   26055.91668981  .00001201  00000+0  70026-5 0  9998
2 67696  97.2837 166.8390 0001388  85.4279  59.2275 15.80834930  3802
STARLINK-36704          
1 67697U 26025E   26055.91668981  .00034417  00000+0  23129-3 0  9994
2 67697  97.2839 166.8408 0001873  61.3631  89.6866 15.75128023  3805
