CCSDS_OMM_VERS = 2.0
CREATION_DATE  = 
ORIGINATOR     = 

OBJECT_NAME    = ISS OBJECT YC
OBJECT_ID      = 1998-067YC
CENTER_NAME    = EARTH
REF_FRAME      = TEME
TIME_SYSTEM    = UTC
MEAN_ELEMENT_THEORY = SGP/SGP4

EPOCH          = 2026-02-24T12:24:41.758272
MEAN_MOTION    = 15.51233940
ECCENTRICITY   = .00077298
INCLINATION    = 51.6312
RA_OF_ASC_NODE = 137.1991
ARG_OF_PERICENTER = 108.4650
MEAN_ANOMALY   = 251.7180

EPHEMERIS_TYPE = 0
CLASSIFICATION_TYPE = U
NORAD_CAT_ID   = 67686
ELEMENT_SET_NO = 999
REV_AT_EPOCH   = 274
BSTAR          = .76511481E-3
MEAN_MOTION_DOT = .45468E-3
MEAN_MOTION_DDOT = 0

CCSDS_OMM_VERS = 2.0
CREATION_DATE  = 
ORIGINATOR     = 

OBJECT_NAME    = LEOPARD
OBJECT_ID      = 1998-067YD
CENTER_NAME    = EARTH
REF_FRAME      = TEME
TIME_SYSTEM    = UTC
MEAN_ELEMENT_THEORY = SGP/SGP4

EPOCH          = 2026-02-24T17:07:13.113408
MEAN_MOTION    = 15.50835076
ECCENTRICITY   = .00077502
INCLINATION    = 51.6308
RA_OF_ASC_NODE = 136.2582
ARG_OF_PERICENTER = 112.1821
MEAN_ANOMALY   = 247.9991

EPHEMERIS_TYPE = 0
CLASSIFICATION_TYPE = U
NORAD_CAT_ID   = 67687
ELEMENT_SET_NO = 999
REV_AT_EPOCH   = 269
BSTAR          = .56751547E-3
MEAN_MOTION_DOT = .33074E-3
MEAN_MOTION_DDOT = 0

CCSDS_OMM_VERS = 2.0
CREATION_DATE  = 
ORIGINATOR     = 

OBJECT_NAME    = ISS OBJECT YE
OBJECT_ID      = 1998-067YE
CENTER_NAME    = EARTH
REF_FRAME      = TEME
TIME_SYSTEM    = UTC
MEAN_ELEMENT_THEORY = SGP/SGP4

EPOCH          = 2026-02-24T12:25:57.532800
MEAN_MOTION    = 15.51094294
ECCENTRICITY   = .00076334
INCLINATION    = 51.6313
RA_OF_ASC_NODE = 137.2046
ARG_OF_PERICENTER = 108.8035
MEAN_ANOMALY   = 251.3783

EPHEMERIS_TYPE = 0
CLASSIFICATION_TYPE = U
NORAD_CAT_ID   = 67688
ELEMENT_SET_NO = 999
REV_AT_EPOCH   = 266
BSTAR          = .71566111E-3
MEAN_MOTION_DOT = .42268E-3
MEAN_MOTION_DDOT = 0

CCSDS_OMM_VERS = 2.0
CREATION_DATE  = 
ORIGINATOR     = 

OBJECT_NAME    = PRC TEST SPACECRAFT 4
OBJECT_ID      = 2026-024A
CENTER_NAME    = EARTH
REF_FRAME      = TEME
TIME_SYSTEM    = UTC
MEAN_ELEMENT_THEORY = SGP/SGP4

EPOCH          = 2026-02-24T21:34:50.648448
MEAN_MOTION    = 14.91677322
ECCENTRICITY   = .00061714
INCLINATION    = 49.9851
RA_OF_ASC_NODE = 82.8136
ARG_OF_PERICENTER = 310.7867
MEAN_ANOMALY   = 49.2539

EPHEMERIS_TYPE = 0
CLASSIFICATION_TYPE = U
NORAD_CAT_ID   = 67689
ELEMENT_SET_NO = 999
REV_AT_EPOCH   = 267
BSTAR          = .2281802E-4
MEAN_MOTION_DOT = -.12E-6
MEAN_MOTION_DDOT = 0

CCSDS_OMM_VERS = 2.0
CREATION_DATE  = 
ORIGINATOR     = 

OBJECT_NAME    = CZ-2F R/B
OBJECT_ID      = 2026-024B
CENTER_NAME    = EARTH
REF_FRAME      = TEME
TIME_SYSTEM    = UTC
MEAN_ELEMENT_THEORY = SGP/SGP4

EPOCH          = 2026-02-24T20:54:01.137600
MEAN_MOTION    = 15.33764308
ECCENTRICITY   = .0176044
INCLINATION    = 49.9869
RA_OF_ASC_NODE = 78.8653
ARG_OF_PERICENTER = 221.7763
MEAN_ANOMALY   = 136.9644

EPHEMERIS_TYPE = 0
CLASSIFICATION_TYPE = U
NORAD_CAT_ID   = 67690
ELEMENT_SET_NO = 999
REV_AT_EPOCH   = 272
BSTAR          = .33012003E-3
MEAN_MOTION_DOT = .17784E-3
MEAN_MOTION_DDOT = 0

CCSDS_OMM_VERS = 2.0
CREATION_DATE  = 
ORIGINATOR     = 

OBJECT_NAME    = CZ-2F DEB
OBJECT_ID      = 2026-024C
CENTER_NAME    = EARTH
REF_FRAME      = TEME
TIME_SYSTEM    = UTC
MEAN_ELEMENT_THEORY = SGP/SGP4

EPOCH          = 2026-02-24T22:18:52.489152
MEAN_MOTION    = 15.80904815
ECCENTRICITY   = .02035086
INCLINATION    = 49.9042
RA_OF_ASC_NODE = 73.7546
ARG_OF_PERICENTER = 232.9935
MEAN_ANOMALY   = 125.2268

EPHEMERIS_TYPE = 0
CLASSIFICATION_TYPE = U
NORAD_CAT_ID   = 67691
ELEMENT_SET_NO = 999
REV_AT_EPOCH   = 278
BSTAR          = .78637151E-3
MEAN_MOTION_DOT = .80609E-2
MEAN_MOTION_DDOT = .10548705E-4

CCSDS_OMM_VERS = 2.0
CREATION_DATE  = 
ORIGINATOR     = 

OBJECT_NAME    = CZ-2F DEB
OBJECT_ID      = 2026-024D
CENTER_NAME    = EARTH
REF_FRAME      = TEME
TIME_SYSTEM    = UTC
MEAN_ELEMENT_THEORY = SGP/SGP4

EPOCH          = 2026-02-24T21:04:48.005760
MEAN_MOTION    = 15.19826183
ECCENTRICITY   = .02500509
INCLINATION    = 50.3159
RA_OF_ASC_NODE = 81.4098
ARG_OF_PERICENTER = 229.6551
MEAN_ANOMALY   = 128.2328

EPHEMERIS_TYPE = 0
CLASSIFICATION_TYPE = U
NORAD_CAT_ID   = 67692
ELEMENT_SET_NO = 999
REV_AT_EPOCH   = 267
BSTAR          = .36225111E-2
MEAN_MOTION_DOT = .189725E-2
MEAN_MOTION_DDOT = 0

CCSDS_OMM_VERS = 2.0
CREATION_DATE  = 
ORIGINATOR     = 

OBJECT_NAME    = STARLINK-36748
OBJECT_ID      = 2026-025A
CENTER_NAME    = EARTH
REF_FRAME      = TEME
TIME_SYSTEM    = UTC
MEAN_ELEMENT_THEORY = SGP/SGP4

EPOCH          = 2026-02-24T22:00:01.999584
MEAN_MOTION    = 15.75217397
ECCENTRICITY   = .00012488
INCLINATION    = 97.2841
RA_OF_ASC_NODE = 166.8183
ARG_OF_PERICENTER = 85.5065
MEAN_ANOMALY   = 9.5232

EPHEMERIS_TYPE = 0
CLASSIFICATION_TYPE = U
NORAD_CAT_ID   = 67693
ELEMENT_SET_NO = 999
REV_AT_EPOCH   = 379
BSTAR          = -.1776505E-3
MEAN_MOTION_DOT = -.26576E-3
MEAN_MOTION_DDOT = 0

CCSDS_OMM_VERS = 2.0
CREATION_DATE  = 
ORIGINATOR     = 

OBJECT_NAME    = STARLINK-36753
OBJECT_ID      = 2026-025B
CENTER_NAME    = EARTH
REF_FRAME      = TEME
TIME_SYSTEM    = UTC
MEAN_ELEMENT_THEORY = SGP/SGP4

EPOCH          = 2026-02-24T22:00:01.999584
MEAN_MOTION    = 15.75258636
ECCENTRICITY   = .00016369
INCLINATION    = 97.2838
RA_OF_ASC_NODE = 166.8357
ARG_OF_PERICENTER = 75.3477
MEAN_ANOMALY   = 63.6962

EPHEMERIS_TYPE = 0
CLASSIFICATION_TYPE = U
NORAD_CAT_ID   = 67694
ELEMENT_SET_NO = 999
REV_AT_EPOCH   = 395
BSTAR          = -.10701364E-2
MEAN_MOTION_DOT = -.157321E-2
MEAN_MOTION_DDOT = 0

CCSDS_OMM_VERS = 2.0
CREATION_DATE  = 
ORIGINATOR     = 

OBJECT_NAME    = STARLINK-36750
OBJECT_ID      = 2026-025C
CENTER_NAME    = EARTH
REF_FRAME      = TEME
TIME_SYSTEM    = UTC
MEAN_ELEMENT_THEORY = SGP/SGP4

EPOCH          = 2026-02-24T22:00:01.999584
MEAN_MOTION    = 15.80829600
ECCENTRICITY   = .00014855
INCLINATION    = 97.2834
RA_OF_ASC_NODE = 166.8357
ARG_OF_PERICENTER = 96.7201
MEAN_ANOMALY   = 39.1216

EPHEMERIS_TYPE = 0
CLASSIFICATION_TYPE = U
NORAD_CAT_ID   = 67695
ELEMENT_SET_NO = 999
REV_AT_EPOCH   = 379
BSTAR          = -.27625178E-4
MEAN_MOTION_DOT = -.5434E-4
MEAN_MOTION_DDOT = 0

CCSDS_OMM_VERS = 2.0
CREATION_DATE  = 
ORIGINATOR     = 

OBJECT_NAME    = STARLINK-36401
OBJECT_ID      = 2026-025D
CENTER_NAME    = EARTH
REF_FRAME      = TEME
TIME_SYSTEM    = UTC
MEAN_ELEMENT_THEORY = SGP/SGP4

EPOCH          = 2026-02-24T22:00:01.999584
MEAN_MOTION    = 15.80834930
ECCENTRICITY   = .00013889
INCLINATION    = 97.2837
RA_OF_ASC_NODE = 166.8390
ARG_OF_PERICENTER = 85.4279
MEAN_ANOMALY   = 59.2275

EPHEMERIS_TYPE = 0
CLASSIFICATION_TYPE = U
NORAD_CAT_ID   = 67696
ELEMENT_SET_NO = 999
REV_AT_EPOCH   = 380
BSTAR          = .7002621E-5
MEAN_MOTION_DOT = .1201E-4
MEAN_MOTION_DDOT = 0

CCSDS_OMM_VERS = 2.0
CREATION_DATE  = 
ORIGINATOR     = 

OBJECT_NAME    = STARLINK-36704
OBJECT_ID      = 2026-025E
CENTER_NAME    = EARTH
REF_FRAME      = TEME
TIME_SYSTEM    = UTC
MEAN_ELEMENT_THEORY = SGP/SGP4

EPOCH          = 2026-02-24T22:00:01.999584
MEAN_MOTION    = 15.75128023
ECCENTRICITY   = .00018734
INCLINATION    = 97.2839
RA_OF_ASC_NODE = 166.8408
ARG_OF_PERICENTER = 61.3631
MEAN_ANOMALY   = 89.6866

EPHEMERIS_TYPE = 0
CLASSIFICATION_TYPE = U
NORAD_CAT_ID   = 67697
ELEMENT_SET_NO = 999
REV_AT_EPOCH   = 380
BSTAR          = .23129338E-3
MEAN_MOTION_DOT = .34417E-3
MEAN_MOTION_DDOT = 0

